{"fetched_at":"2026-03-29T16:36:15Z","count":15609,"tles":[{"name":"STARLINK-4725","line1":"1 53700U 22107A   26087.92932439 -.00001804  00000+0 -95253-4 0  9993","line2":"2 53700  53.2169 157.3772 0001557  96.1505 263.9664 15.08848759197760","category":"Starlink"}]}