{
  "norad_id": 53700,
  "name": "STARLINK-4725",
  "history": [
    {
      "epoch": "2026-03-28T22:18:13.627296",
      "apogee_km": 540.7937261427742,
      "perigee_km": 538.639506526647,
      "latitude_deg": 27.335631580805188,
      "longitude_deg": -0.7848585599567741,
      "semi_major_axis_km": 6917.85361633471,
      "eccentricity": 0.0001557,
      "inclination_deg": 53.2169,
      "raan_deg": 157.3772,
      "arg_perigee_deg": 96.1505,
      "mean_anomaly_deg": 263.9664,
      "mean_motion_rev_day": 15.08848759
    }
  ]
}